{
  "links" : {
    "next" : "https://api.nasa.gov/neo/rest/v1/feed?start_date=2005-05-16&end_date=2005-05-16&detailed=true&api_key=t0TVs3DtDT2H8Oy2Zy8m2eVrNsAVKAexjcZXUckd",
    "prev" : "https://api.nasa.gov/neo/rest/v1/feed?start_date=2005-05-14&end_date=2005-05-14&detailed=true&api_key=t0TVs3DtDT2H8Oy2Zy8m2eVrNsAVKAexjcZXUckd",
    "self" : "https://api.nasa.gov/neo/rest/v1/feed?start_date=2005-05-15&end_date=2005-05-15&detailed=true&api_key=t0TVs3DtDT2H8Oy2Zy8m2eVrNsAVKAexjcZXUckd"
  },
  "element_count" : 7,
  "near_earth_objects" : {
    "2005-05-15" : [ {
      "links" : {
        "self" : "https://api.nasa.gov/neo/rest/v1/neo/3151655?api_key=t0TVs3DtDT2H8Oy2Zy8m2eVrNsAVKAexjcZXUckd"
      },
      "neo_reference_id" : "3151655",
      "name" : "(2003 FY6)",
      "nasa_jpl_url" : "http://ssd.jpl.nasa.gov/sbdb.cgi?sstr=3151655",
      "absolute_magnitude_h" : 22.4,
      "estimated_diameter" : {
        "kilometers" : {
          "estimated_diameter_min" : 0.0880146521,
          "estimated_diameter_max" : 0.1968067451
        },
        "meters" : {
          "estimated_diameter_min" : 88.0146520901,
          "estimated_diameter_max" : 196.8067450894
        },
        "miles" : {
          "estimated_diameter_min" : 0.0546897524,
          "estimated_diameter_max" : 0.122290004
        },
        "feet" : {
          "estimated_diameter_min" : 288.7619911632,
          "estimated_diameter_max" : 645.6914415591
        }
      },
      "is_potentially_hazardous_asteroid" : false,
      "close_approach_data" : [ {
        "close_approach_date" : "2005-05-15",
        "epoch_date_close_approach" : 1116140400000,
        "relative_velocity" : {
          "kilometers_per_second" : "16.9618752488",
          "kilometers_per_hour" : "61062.7508957905",
          "miles_per_hour" : "37942.0187441094"
        },
        "miss_distance" : {
          "astronomical" : "0.1255503016",
          "lunar" : "48.8390655518",
          "kilometers" : "18782058",
          "miles" : "11670630"
        },
        "orbiting_body" : "Earth"
      } ],
      "orbital_data" : {
        "orbit_id" : "22",
        "orbit_determination_date" : "2017-04-06 09:14:13",
        "orbit_uncertainty" : "1",
        "minimum_orbit_intersection" : ".00341163",
        "jupiter_tisserand_invariant" : "7.733",
        "epoch_osculation" : "2458000.5",
        "eccentricity" : ".5820928669232597",
        "semi_major_axis" : ".7300342420693026",
        "inclination" : "6.604606154991182",
        "ascending_node_longitude" : "359.2873158856723",
        "orbital_period" : "227.8312397941655",
        "perihelion_distance" : ".3050865171510333",
        "perihelion_argument" : "29.56892377631691",
        "aphelion_distance" : "1.154981966987572",
        "perihelion_time" : "2457898.856231345907",
        "mean_anomaly" : "160.6090400444316",
        "mean_motion" : "1.58011693359191",
        "equinox" : "J2000"
      }
    }, {
      "links" : {
        "self" : "https://api.nasa.gov/neo/rest/v1/neo/3277570?api_key=t0TVs3DtDT2H8Oy2Zy8m2eVrNsAVKAexjcZXUckd"
      },
      "neo_reference_id" : "3277570",
      "name" : "(2005 JU1)",
      "nasa_jpl_url" : "http://ssd.jpl.nasa.gov/sbdb.cgi?sstr=3277570",
      "absolute_magnitude_h" : 21.6,
      "estimated_diameter" : {
        "kilometers" : {
          "estimated_diameter_min" : 0.1272198785,
          "estimated_diameter_max" : 0.2844722965
        },
        "meters" : {
          "estimated_diameter_min" : 127.2198785394,
          "estimated_diameter_max" : 284.4722965033
        },
        "miles" : {
          "estimated_diameter_min" : 0.0790507431,
          "estimated_diameter_max" : 0.1767628354
        },
        "feet" : {
          "estimated_diameter_min" : 417.3880663071,
          "estimated_diameter_max" : 933.3080892598
        }
      },
      "is_potentially_hazardous_asteroid" : true,
      "close_approach_data" : [ {
        "close_approach_date" : "2005-05-15",
        "epoch_date_close_approach" : 1116140400000,
        "relative_velocity" : {
          "kilometers_per_second" : "17.056609606",
          "kilometers_per_hour" : "61403.7945817134",
          "miles_per_hour" : "38153.9300277319"
        },
        "miss_distance" : {
          "astronomical" : "0.047940819",
          "lunar" : "18.648979187",
          "kilometers" : "7171844.5",
          "miles" : "4456377.5"
        },
        "orbiting_body" : "Earth"
      } ],
      "orbital_data" : {
        "orbit_id" : "25",
        "orbit_determination_date" : "2017-04-06 09:11:01",
        "orbit_uncertainty" : "0",
        "minimum_orbit_intersection" : ".0337898",
        "jupiter_tisserand_invariant" : "3.197",
        "epoch_osculation" : "2458000.5",
        "eccentricity" : ".6857605190028158",
        "semi_major_axis" : "2.336677832950294",
        "inclination" : "6.068235325952641",
        "ascending_node_longitude" : "33.0783101367947",
        "orbital_period" : "1304.658009433912",
        "perihelion_distance" : ".7342764294839256",
        "perihelion_argument" : "269.4573383429569",
        "aphelion_distance" : "3.939079236416662",
        "perihelion_time" : "2457474.330509825733",
        "mean_anomaly" : "145.1882524715619",
        "mean_motion" : ".2759343808085025",
        "equinox" : "J2000"
      }
    }, {
      "links" : {
        "self" : "https://api.nasa.gov/neo/rest/v1/neo/3477577?api_key=t0TVs3DtDT2H8Oy2Zy8m2eVrNsAVKAexjcZXUckd"
      },
      "neo_reference_id" : "3477577",
      "name" : "(2009 WM1)",
      "nasa_jpl_url" : "http://ssd.jpl.nasa.gov/sbdb.cgi?sstr=3477577",
      "absolute_magnitude_h" : 20.4,
      "estimated_diameter" : {
        "kilometers" : {
          "estimated_diameter_min" : 0.2210828104,
          "estimated_diameter_max" : 0.4943561926
        },
        "meters" : {
          "estimated_diameter_min" : 221.0828103591,
          "estimated_diameter_max" : 494.3561926196
        },
        "miles" : {
          "estimated_diameter_min" : 0.137374447,
          "estimated_diameter_max" : 0.3071786018
        },
        "feet" : {
          "estimated_diameter_min" : 725.3373275385,
          "estimated_diameter_max" : 1621.9035709942
        }
      },
      "is_potentially_hazardous_asteroid" : true,
      "close_approach_data" : [ {
        "close_approach_date" : "2005-05-15",
        "epoch_date_close_approach" : 1116140400000,
        "relative_velocity" : {
          "kilometers_per_second" : "13.1896827449",
          "kilometers_per_hour" : "47482.8578816771",
          "miles_per_hour" : "29504.0013320899"
        },
        "miss_distance" : {
          "astronomical" : "0.3833030158",
          "lunar" : "149.1048736572",
          "kilometers" : "57341316",
          "miles" : "35630240"
        },
        "orbiting_body" : "Earth"
      } ],
      "orbital_data" : {
        "orbit_id" : "28",
        "orbit_determination_date" : "2017-04-06 08:59:10",
        "orbit_uncertainty" : "1",
        "minimum_orbit_intersection" : ".000726616",
        "jupiter_tisserand_invariant" : "5.253",
        "epoch_osculation" : "2458000.5",
        "eccentricity" : ".1690550541257498",
        "semi_major_axis" : "1.180565643936547",
        "inclination" : "25.76652944458216",
        "ascending_node_longitude" : "240.2767934509194",
        "orbital_period" : "468.5259367359506",
        "perihelion_distance" : ".9809850551018531",
        "perihelion_argument" : "162.5888396063844",
        "aphelion_distance" : "1.38014623277124",
        "perihelion_time" : "2457943.658818288195",
        "mean_anomaly" : "43.67490423007742",
        "mean_motion" : ".7683672808126457",
        "equinox" : "J2000"
      }
    } ]
  }
}